[{"OBJECT_NAME":"STARLINK-33713","OBJECT_ID":"2025-070V","EPOCH":"2025-08-05T13:15:25.899840","MEAN_MOTION":15.27579592,"ECCENTRICITY":0.0001699,"INCLINATION":43.0042,"RA_OF_ASC_NODE":36.72,"ARG_OF_PERICENTER":267.8976,"MEAN_ANOMALY":92.1681,"EPHEMERIS_TYPE":0,"CLASSIFICATION_TYPE":"U","NORAD_CAT_ID":63479,"ELEMENT_SET_NO":999,"REV_AT_EPOCH":1996,"BSTAR":0.00069987,"MEAN_MOTION_DOT":0.00019046,"MEAN_MOTION_DDOT":0},{"OBJECT_NAME":"STARLINK-33721","OBJECT_ID":"2025-070W","EPOCH":"2025-08-05T11:44:58.579296","MEAN_MOTION":15.27596597,"ECCENTRICITY":0.0001001,"INCLINATION":43.0007,"RA_OF_ASC_NODE":37.1077,"ARG_OF_PERICENTER":249.358,"MEAN_ANOMALY":110.7164,"EPHEMERIS_TYPE":0,"CLASSIFICATION_TYPE":"U","NORAD_CAT_ID":63480,"ELEMENT_SET_NO":999,"REV_AT_EPOCH":1995,"BSTAR":0.00072253,"MEAN_MOTION_DOT":0.00019683,"MEAN_MOTION_DDOT":0},{"OBJECT_NAME":"STARLINK-33639","OBJECT_ID":"2025-070X","EPOCH":"2025-08-05T12:12:44.093952","MEAN_MOTION":15.27596358,"ECCENTRICITY":5.11e-5,"INCLINATION":43.0006,"RA_OF_ASC_NODE":37.2482,"ARG_OF_PERICENTER":250.6319,"MEAN_ANOMALY":109.4477,"EPHEMERIS_TYPE":0,"CLASSIFICATION_TYPE":"U","NORAD_CAT_ID":63481,"ELEMENT_SET_NO":999,"REV_AT_EPOCH":1994,"BSTAR":0.0010702,"MEAN_MOTION_DOT":0.00029319,"MEAN_MOTION_DDOT":0},{"OBJECT_NAME":"STARLINK-33667","OBJECT_ID":"2025-070Y","EPOCH":"2025-08-05T03:08:29.153472","MEAN_MOTION":15.45584704,"ECCENTRICITY":0.0002478,"INCLINATION":43.002,"RA_OF_ASC_NODE":11.4773,"ARG_OF_PERICENTER":313.0307,"MEAN_ANOMALY":47.0344,"EPHEMERIS_TYPE":0,"CLASSIFICATION_TYPE":"U","NORAD_CAT_ID":63482,"ELEMENT_SET_NO":999,"REV_AT_EPOCH":2021,"BSTAR":0.001305,"MEAN_MOTION_DOT":0.00064509,"MEAN_MOTION_DDOT":0},{"OBJECT_NAME":"STARLINK-33688","OBJECT_ID":"2025-070Z","EPOCH":"2025-08-05T13:57:17.712000","MEAN_MOTION":15.27604309,"ECCENTRICITY":0.0002551,"INCLINATION":43.002,"RA_OF_ASC_NODE":40.402,"ARG_OF_PERICENTER":281.4778,"MEAN_ANOMALY":78.5787,"EPHEMERIS_TYPE":0,"CLASSIFICATION_TYPE":"U","NORAD_CAT_ID":63483,"ELEMENT_SET_NO":999,"REV_AT_EPOCH":1992,"BSTAR":0.0011035,"MEAN_MOTION_DOT":0.00030252,"MEAN_MOTION_DDOT":0},{"OBJECT_NAME":"STARLINK-33700","OBJECT_ID":"2025-070AA","EPOCH":"2025-08-05T13:29:32.440992","MEAN_MOTION":15.27583833,"ECCENTRICITY":0.0001782,"INCLINATION":43.0038,"RA_OF_ASC_NODE":40.2597,"ARG_OF_PERICENTER":268.9203,"MEAN_ANOMALY":91.1444,"EPHEMERIS_TYPE":0,"CLASSIFICATION_TYPE":"U","NORAD_CAT_ID":63484,"ELEMENT_SET_NO":999,"REV_AT_EPOCH":1992,"BSTAR":0.00078834,"MEAN_MOTION_DOT":0.00021497,"MEAN_MOTION_DDOT":0},{"OBJECT_NAME":"STARLINK-33687","OBJECT_ID":"2025-070AB","EPOCH":"2025-08-05T13:12:52.661664","MEAN_MOTION":15.27596862,"ECCENTRICITY":5.65e-5,"INCLINATION":42.9993,"RA_OF_ASC_NODE":40.1307,"ARG_OF_PERICENTER":279.5517,"MEAN_ANOMALY":80.5271,"EPHEMERIS_TYPE":0,"CLASSIFICATION_TYPE":"U","NORAD_CAT_ID":63485,"ELEMENT_SET_NO":999,"REV_AT_EPOCH":1992,"BSTAR":0.00065274,"MEAN_MOTION_DOT":0.00017752,"MEAN_MOTION_DDOT":0},{"OBJECT_NAME":"STARLINK-33716","OBJECT_ID":"2025-070AC","EPOCH":"2025-08-05T13:20:17.076480","MEAN_MOTION":15.27594847,"ECCENTRICITY":0.0001068,"INCLINATION":43.0005,"RA_OF_ASC_NODE":40.2202,"ARG_OF_PERICENTER":254.2757,"MEAN_ANOMALY":105.7977,"EPHEMERIS_TYPE":0,"CLASSIFICATION_TYPE":"U","NORAD_CAT_ID":63486,"ELEMENT_SET_NO":999,"REV_AT_EPOCH":1992,"BSTAR":0.00038285,"MEAN_MOTION_DOT":0.00010293,"MEAN_MOTION_DDOT":0},{"OBJECT_NAME":"STARLINK-33754","OBJECT_ID":"2025-070AD","EPOCH":"2025-08-05T13:49:53.382720","MEAN_MOTION":15.27595578,"ECCENTRICITY":0.0001441,"INCLINATION":43.0006,"RA_OF_ASC_NODE":40.3599,"ARG_OF_PERICENTER":202.6022,"MEAN_ANOMALY":157.4766,"EPHEMERIS_TYPE":0,"CLASSIFICATION_TYPE":"U","NORAD_CAT_ID":63487,"ELEMENT_SET_NO":999,"REV_AT_EPOCH":1992,"BSTAR":0.00071002,"MEAN_MOTION_DOT":0.00019337,"MEAN_MOTION_DDOT":0},{"OBJECT_NAME":"STARLINK-33828","OBJECT_ID":"2025-071A","EPOCH":"2025-08-05T00:02:32.758656","MEAN_MOTION":15.30222541,"ECCENTRICITY":4.55e-5,"INCLINATION":53.1618,"RA_OF_ASC_NODE":68.5879,"ARG_OF_PERICENTER":54.5666,"MEAN_ANOMALY":305.5377,"EPHEMERIS_TYPE":0,"CLASSIFICATION_TYPE":"U","NORAD_CAT_ID":63493,"ELEMENT_SET_NO":999,"REV_AT_EPOCH":1954,"BSTAR":0.0010304,"MEAN_MOTION_DOT":0.00030304,"MEAN_MOTION_DDOT":0},{"OBJECT_NAME":"STARLINK-33819","OBJECT_ID":"2025-071B","EPOCH":"2025-08-04T20:58:59.053440","MEAN_MOTION":15.30237581,"ECCENTRICITY":0.0001601,"INCLINATION":53.1528,"RA_OF_ASC_NODE":69.2044,"ARG_OF_PERICENTER":116.0754,"MEAN_ANOMALY":244.0412,"EPHEMERIS_TYPE":0,"CLASSIFICATION_TYPE":"U","NORAD_CAT_ID":63494,"ELEMENT_SET_NO":999,"REV_AT_EPOCH":1952,"BSTAR":0.00092055,"MEAN_MOTION_DOT":0.00027036,"MEAN_MOTION_DDOT":0},{"OBJECT_NAME":"STARLINK-33845","OBJECT_ID":"2025-071C","EPOCH":"2025-08-05T13:45:29.803104","MEAN_MOTION":15.3017351,"ECCENTRICITY":0.0001476,"INCLINATION":53.1591,"RA_OF_ASC_NODE":63.6156,"ARG_OF_PERICENTER":91.3795,"MEAN_ANOMALY":268.7375,"EPHEMERIS_TYPE":0,"CLASSIFICATION_TYPE":"U","NORAD_CAT_ID":63495,"ELEMENT_SET_NO":999,"REV_AT_EPOCH":1966,"BSTAR":0.00069512,"MEAN_MOTION_DOT":0.00020268,"MEAN_MOTION_DDOT":0},{"OBJECT_NAME":"STARLINK-33829","OBJECT_ID":"2025-071D","EPOCH":"2025-08-05T00:01:47.117856","MEAN_MOTION":15.30200473,"ECCENTRICITY":0.0001104,"INCLINATION":53.1594,"RA_OF_ASC_NODE":66.446,"ARG_OF_PERICENTER":83.8999,"MEAN_ANOMALY":276.2127,"EPHEMERIS_TYPE":0,"CLASSIFICATION_TYPE":"U","NORAD_CAT_ID":63496,"ELEMENT_SET_NO":999,"REV_AT_EPOCH":1953,"BSTAR":0.0012388,"MEAN_MOTION_DOT":0.00036511,"MEAN_MOTION_DDOT":0},{"OBJECT_NAME":"STARLINK-33815","OBJECT_ID":"2025-071E","EPOCH":"2025-08-05T14:34:06.026016","MEAN_MOTION":15.30232711,"ECCENTRICITY":0.0001826,"INCLINATION":53.1573,"RA_OF_ASC_NODE":63.8284,"ARG_OF_PERICENTER":101.0652,"MEAN_ANOMALY":259.0554,"EPHEMERIS_TYPE":0,"CLASSIFICATION_TYPE":"U","NORAD_CAT_ID":63497,"ELEMENT_SET_NO":999,"REV_AT_EPOCH":1968,"BSTAR":0.00065807,"MEAN_MOTION_DOT":0.00019201,"MEAN_MOTION_DDOT":0},{"OBJECT_NAME":"STARLINK-33833","OBJECT_ID":"2025-071F","EPOCH":"2025-08-05T06:31:40.406880","MEAN_MOTION":15.3020494,"ECCENTRICITY":7.49e-5,"INCLINATION":53.154,"RA_OF_ASC_NODE":65.2893,"ARG_OF_PERICENTER":64.4272,"MEAN_ANOMALY":295.6806,"EPHEMERIS_TYPE":0,"CLASSIFICATION_TYPE":"U","NORAD_CAT_ID":63498,"ELEMENT_SET_NO":999,"REV_AT_EPOCH":1963,"BSTAR":0.00075292,"MEAN_MOTION_DOT":0.0002201,"MEAN_MOTION_DDOT":0},{"OBJECT_NAME":"STARLINK-33534","OBJECT_ID":"2025-071G","EPOCH":"2025-08-05T14:15:51.888384","MEAN_MOTION":15.30218172,"ECCENTRICITY":0.0001152,"INCLINATION":53.1595,"RA_OF_ASC_NODE":63.7483,"ARG_OF_PERICENTER":83.2228,"MEAN_ANOMALY":276.8904,"EPHEMERIS_TYPE":0,"CLASSIFICATION_TYPE":"U","NORAD_CAT_ID":63499,"ELEMENT_SET_NO":999,"REV_AT_EPOCH":1966,"BSTAR":0.0010937,"MEAN_MOTION_DOT":0.00032192,"MEAN_MOTION_DDOT":0},{"OBJECT_NAME":"STARLINK-33838","OBJECT_ID":"2025-071H","EPOCH":"2025-08-05T13:51:32.466240","MEAN_MOTION":15.30224021,"ECCENTRICITY":0.0001307,"INCLINATION":53.1594,"RA_OF_ASC_NODE":63.6389,"ARG_OF_PERICENTER":99.9395,"MEAN_ANOMALY":260.1753,"EPHEMERIS_TYPE":0,"CLASSIFICATION_TYPE":"U","NORAD_CAT_ID":63500,"ELEMENT_SET_NO":999,"REV_AT_EPOCH":1947,"BSTAR":0.00065047,"MEAN_MOTION_DOT":0.00018969,"MEAN_MOTION_DDOT":0},{"OBJECT_NAME":"STARLINK-33837","OBJECT_ID":"2025-071J","EPOCH":"2025-08-03T23:31:53.147136","MEAN_MOTION":15.30211001,"ECCENTRICITY":8.91e-5,"INCLINATION":53.1604,"RA_OF_ASC_NODE":71.4523,"ARG_OF_PERICENTER":85.9454,"MEAN_ANOMALY":274.1648,"EPHEMERIS_TYPE":0,"CLASSIFICATION_TYPE":"U","NORAD_CAT_ID":63501,"ELEMENT_SET_NO":999,"REV_AT_EPOCH":1937,"BSTAR":0.0011228,"MEAN_MOTION_DOT":0.00033054,"MEAN_MOTION_DDOT":0},{"OBJECT_NAME":"STARLINK-33818","OBJECT_ID":"2025-071K","EPOCH":"2025-08-05T13:46:59.414592","MEAN_MOTION":15.3023485,"ECCENTRICITY":0.0001829,"INCLINATION":53.1587,"RA_OF_ASC_NODE":63.6204,"ARG_OF_PERICENTER":90.4035,"MEAN_ANOMALY":269.7175,"EPHEMERIS_TYPE":0,"CLASSIFICATION_TYPE":"U","NORAD_CAT_ID":63502,"ELEMENT_SET_NO":999,"REV_AT_EPOCH":1968,"BSTAR":0.00088239,"MEAN_MOTION_DOT":0.00025894,"MEAN_MOTION_DDOT":0},{"OBJECT_NAME":"STARLINK-33583","OBJECT_ID":"2025-071L","EPOCH":"2025-08-05T13:44:52.310688","MEAN_MOTION":15.30212286,"ECCENTRICITY":0.0001177,"INCLINATION":53.1601,"RA_OF_ASC_NODE":66.4437,"ARG_OF_PERICENTER":75.4701,"MEAN_ANOMALY":284.643,"EPHEMERIS_TYPE":0,"CLASSIFICATION_TYPE":"U","NORAD_CAT_ID":63503,"ELEMENT_SET_NO":999,"REV_AT_EPOCH":1965,"BSTAR":0.00041801,"MEAN_MOTION_DOT":0.00012046,"MEAN_MOTION_DDOT":0},{"OBJECT_NAME":"STARLINK-33811","OBJECT_ID":"2025-071M","EPOCH":"2025-08-05T07:00:32.954976","MEAN_MOTION":15.3018803,"ECCENTRICITY":0.0001292,"INCLINATION":53.1577,"RA_OF_ASC_NODE":65.4148,"ARG_OF_PERICENTER":82.7234,"MEAN_ANOMALY":277.3913,"EPHEMERIS_TYPE":0,"CLASSIFICATION_TYPE":"U","NORAD_CAT_ID":63504,"ELEMENT_SET_NO":999,"REV_AT_EPOCH":1957,"BSTAR":0.00096204,"MEAN_MOTION_DOT":0.00028231,"MEAN_MOTION_DDOT":0},{"OBJECT_NAME":"STARLINK-33825","OBJECT_ID":"2025-071N","EPOCH":"2025-08-05T13:33:18.767520","MEAN_MOTION":15.30205574,"ECCENTRICITY":0.0001364,"INCLINATION":53.1584,"RA_OF_ASC_NODE":63.5593,"ARG_OF_PERICENTER":87.0616,"MEAN_ANOMALY":273.0541,"EPHEMERIS_TYPE":0,"CLASSIFICATION_TYPE":"U","NORAD_CAT_ID":63505,"ELEMENT_SET_NO":999,"REV_AT_EPOCH":1969,"BSTAR":0.00059885,"MEAN_MOTION_DOT":0.00017422,"MEAN_MOTION_DDOT":0},{"OBJECT_NAME":"STARLINK-33792","OBJECT_ID":"2025-071P","EPOCH":"2025-08-04T23:32:54.257856","MEAN_MOTION":15.3023145,"ECCENTRICITY":4.02e-5,"INCLINATION":53.1606,"RA_OF_ASC_NODE":66.3167,"ARG_OF_PERICENTER":91.1167,"MEAN_ANOMALY":268.988,"EPHEMERIS_TYPE":0,"CLASSIFICATION_TYPE":"U","NORAD_CAT_ID":63506,"ELEMENT_SET_NO":999,"REV_AT_EPOCH":1954,"BSTAR":0.0009004,"MEAN_MOTION_DOT":0.00026429,"MEAN_MOTION_DDOT":0}]
